OBJECT_NAME,OBJECT_ID,EPOCH,MEAN_MOTION,ECCENTRICITY,INCLINATION,RA_OF_ASC_NODE,ARG_OF_PERICENTER,MEAN_ANOMALY,EPHEMERIS_TYPE,CLASSIFICATION_TYPE,NORAD_CAT_ID,ELEMENT_SET_NO,REV_AT_EPOCH,BSTAR,MEAN_MOTION_DOT,MEAN_MOTION_DDOT
ONEWEB-0063,2020-020AA,2026-07-14T00:43:49.731744,13.11416521,.0001924,87.8892,15.7247,82.0275,278.1071,0,U,45448,999,30621,.15307E-2,.555E-5,0
ONEWEB-0019,2020-020AB,2026-07-14T01:39:33.716736,13.11412179,.0002027,87.8883,15.7026,96.4379,263.6980,0,U,45449,999,30606,.16172E-3,.7E-6,0
ONEWEB-0094,2020-020AC,2026-07-13T22:22:46.564896,13.17649171,.0001789,87.9156,0.5302,98.9202,261.2132,0,U,45450,999,30983,-.10556E-3,-.28E-6,0
ONEWEB-0087,2020-020AD,2026-07-14T00:58:04.423872,13.11415384,.000156,87.8900,15.6992,93.0087,267.1219,0,U,45451,999,30610,.11762E-2,.43E-5,0
ONEWEB-0082,2020-020AE,2026-07-14T00:53:11.680800,13.11415712,.0001386,87.8893,15.7145,86.1494,273.9792,0,U,45452,999,30619,.13228E-2,.482E-5,0
ONEWEB-0050,2020-020AF,2026-07-14T03:11:18.456000,14.90470407,.0002026,88.9279,229.5500,177.5761,182.5478,0,U,45453,999,34439,.91892E-4,.918E-5,0
ONEWEB-0034,2020-020AG,2026-07-13T23:57:26.921664,13.11417714,.0001814,87.8891,15.7313,88.9352,271.1984,0,U,45454,999,30610,-.13608E-2,-.47E-5,0
ONEWEB-0060,2020-020AH,2026-07-14T00:42:24.727968,13.11416817,.0001127,87.8884,15.7211,118.8905,241.2336,0,U,45455,999,30606,.15994E-2,.58E-5,0
ONEWEB-0086,2020-020AJ,2026-07-14T00:11:40.589088,13.11419531,.0001782,87.8893,15.7228,114.6967,245.4347,0,U,45456,999,30612,-.25836E-3,-.79E-6,0
ONEWEB-0088,2020-020AK,2026-07-14T01:29:59.150688,13.11416011,.0001742,87.8897,15.6868,76.8385,283.2938,0,U,45457,999,30606,-.12465E-2,-.429E-5,0
ONEWEB-0102,2020-100A,2026-07-13T21:26:13.305120,13.12442176,.0002005,87.8960,345.3635,103.0146,257.1206,0,U,47258,999,26823,-.46628E-3,-.155E-5,0
ONEWEB-0109,2020-100B,2026-07-13T21:38:24.863424,13.12442871,.0002011,87.8970,345.3474,98.2266,261.9090,0,U,47259,999,26806,-.10302E-2,-.358E-5,0
ONEWEB-0110,2020-100C,2026-07-13T22:17:28.061664,13.12444370,.0001795,87.8969,345.3264,104.8303,255.3025,0,U,47260,999,26823,.13152E-3,.6E-6,0
ONEWEB-0111,2020-100D,2026-07-13T23:01:22.414080,13.12442074,.0001728,87.8970,345.3387,95.6535,264.4790,0,U,47261,999,26807,.55019E-3,.211E-5,0
ONEWEB-0114,2020-100E,2026-07-13T21:55:29.443008,13.12443046,.0002076,87.8973,345.3464,95.3377,264.7988,0,U,47262,999,26802,-.12081E-2,-.422E-5,0
ONEWEB-0117,2020-100F,2026-07-13T21:43:17.531328,13.12442296,.0001841,87.8969,345.3379,97.2617,262.8721,0,U,47263,999,26803,-.11239E-2,-.392E-5,0
ONEWEB-0118,2020-100G,2026-07-13T22:32:06.023904,13.12442558,.0001991,87.8965,345.3341,87.2981,272.8375,0,U,47264,999,26823,.11738E-2,.435E-5,0
ONEWEB-0119,2020-100H,2026-07-13T23:08:41.406432,13.12441589,.0001869,87.8958,345.3427,96.2379,263.8962,0,U,47265,999,26821,.1445E-3,.65E-6,0
ONEWEB-0120,2020-100J,2026-07-13T20:03:28.168416,13.12442339,.0002058,87.8959,345.3704,96.5958,263.5404,0,U,47266,999,26822,-.11283E-2,-.393E-5,0
ONEWEB-0121,2020-100K,2026-07-13T23:25:45.254208,13.12441687,.0001545,87.8970,345.3310,98.3398,261.7905,0,U,47267,999,26815,-.99946E-3,-.347E-5,0
ONEWEB-0122,2020-100L,2026-07-13T21:27:26.090208,13.12440479,.0001946,87.8974,345.3519,97.4237,262.7113,0,U,47268,999,26805,-.46827E-3,-.156E-5,0
ONEWEB-0123,2020-100M,2026-07-13T23:11:07.317888,13.12441521,.0001859,87.8960,345.3415,92.5460,267.5881,0,U,47269,999,26820,-.11565E-3,-.29E-6,0
ONEWEB-0124,2020-100N,2026-07-13T22:56:29.481792,13.12441885,.0001735,87.8958,345.3467,95.3196,264.8130,0,U,47270,999,26808,.75768E-3,.285E-5,0
ONEWEB-0125,2020-100P,2026-07-13T22:24:46.406016,13.12443802,.000161,87.8970,345.3374,88.7417,271.3896,0,U,47271,999,26814,.59517E-3,.227E-5,0
ONEWEB-0126,2020-100Q,2026-07-13T22:54:16.056000,13.12441496,.000197,87.8963,345.3474,95.2443,264.8910,0,U,47272,999,26821,.95024E-3,.355E-5,0
ONEWEB-0127,2020-100R,2026-07-13T22:05:15.146016,13.12443917,.0002002,87.8961,345.3516,97.0358,263.0998,0,U,47273,999,26823,-.70195E-3,-.24E-5,0
ONEWEB-0128,2020-100S,2026-07-13T22:36:58.634784,13.12443272,.0001732,87.8958,345.3609,104.9808,255.1512,0,U,47274,999,26825,.97985E-3,.365E-5,0
ONEWEB-0129,2020-100T,2026-07-13T22:07:41.625120,13.12443681,.0002967,87.8968,345.3414,94.7914,265.3554,0,U,47275,999,26818,-.62578E-3,-.212E-5,0
ONEWEB-0130,2020-100U,2026-07-13T22:46:44.400000,13.12442895,.0001933,87.8967,345.3319,98.5092,261.6256,0,U,47276,999,26815,.10908E-2,.405E-5,0
ONEWEB-0131,2020-100V,2026-07-13T20:52:04.857888,13.12443429,.0001787,87.8957,345.3628,102.9044,257.2284,0,U,47277,999,26818,.96109E-3,.358E-5,0
