ONEWEB-0063             
1 45448U 20020AA  26195.03043671  .00000555  00000+0  15307-2 0  9998
2 45448  87.8892  15.7247 0001924  82.0275 278.1071 13.11416521306218
ONEWEB-0019             
1 45449U 20020AB  26195.06914024  .00000070  00000+0  16172-3 0  9995
2 45449  87.8883  15.7026 0002027  96.4379 263.6980 13.11412179306069
ONEWEB-0094             
1 45450U 20020AC  26194.93248339 -.00000028  00000+0 -10556-3 0  9996
2 45450  87.9156   0.5302 0001789  98.9202 261.2132 13.17649171309831
ONEWEB-0087             
1 45451U 20020AD  26195.04032898  .00000430  00000+0  11762-2 0  9995
2 45451  87.8900  15.6992 0001560  93.0087 267.1219 13.11415384306103
ONEWEB-0082             
1 45452U 20020AE  26195.03694075  .00000482  00000+0  13228-2 0  9992
2 45452  87.8893  15.7145 0001386  86.1494 273.9792 13.11415712306192
ONEWEB-0050             
1 45453U 20020AF  26195.13285250  .00000918  00000+0  91892-4 0  9994
2 45453  88.9279 229.5500 0002026 177.5761 182.5478 14.90470407344397
ONEWEB-0034             
1 45454U 20020AG  26194.99822826 -.00000470  00000+0 -13608-2 0  9996
2 45454  87.8891  15.7313 0001814  88.9352 271.1984 13.11417714306106
ONEWEB-0060             
1 45455U 20020AH  26195.02945287  .00000580  00000+0  15994-2 0  9999
2 45455  87.8884  15.7211 0001127 118.8905 241.2336 13.11416817306067
ONEWEB-0086             
1 45456U 20020AJ  26195.00810867 -.00000079  00000+0 -25836-3 0  9995
2 45456  87.8893  15.7228 0001782 114.6967 245.4347 13.11419531306126
ONEWEB-0088             
1 45457U 20020AK  26195.06249017 -.00000429  00000+0 -12465-2 0  9997
2 45457  87.8897  15.6868 0001742  76.8385 283.2938 13.11416011306068
ONEWEB-0102             
1 47258U 20100A   26194.89320955 -.00000155  00000+0 -46628-3 0  9993
2 47258  87.8960 345.3635 0002005 103.0146 257.1206 13.12442176268232
ONEWEB-0109             
1 47259U 20100B   26194.90167666 -.00000358  00000+0 -10302-2 0  9998
2 47259  87.8970 345.3474 0002011  98.2266 261.9090 13.12442871268067
ONEWEB-0110             
1 47260U 20100C   26194.92879701  .00000060  00000+0  13152-3 0  9997
2 47260  87.8969 345.3264 0001795 104.8303 255.3025 13.12444370268238
ONEWEB-0111             
1 47261U 20100D   26194.95928720  .00000211  00000+0  55019-3 0  9993
2 47261  87.8970 345.3387 0001728  95.6535 264.4790 13.12442074268078
ONEWEB-0114             
1 47262U 20100E   26194.91353522 -.00000422  00000+0 -12081-2 0  9999
2 47262  87.8973 345.3464 0002076  95.3377 264.7988 13.12443046268023
ONEWEB-0117             
1 47263U 20100F   26194.90506402 -.00000392  00000+0 -11239-2 0  9996
2 47263  87.8969 345.3379 0001841  97.2617 262.8721 13.12442296268032
ONEWEB-0118             
1 47264U 20100G   26194.93895861  .00000435  00000+0  11738-2 0  9990
2 47264  87.8965 345.3341 0001991  87.2981 272.8375 13.12442558268236
ONEWEB-0119             
1 47265U 20100H   26194.96436813  .00000065  00000+0  14450-3 0  9996
2 47265  87.8958 345.3427 0001869  96.2379 263.8962 13.12441589268212
ONEWEB-0120             
1 47266U 20100J   26194.83574269 -.00000393  00000+0 -11283-2 0  9997
2 47266  87.8959 345.3704 0002058  96.5958 263.5404 13.12442339268222
ONEWEB-0121             
1 47267U 20100K   26194.97621822 -.00000347  00000+0 -99946-3 0  9993
2 47267  87.8970 345.3310 0001545  98.3398 261.7905 13.12441687268150
ONEWEB-0122             
1 47268U 20100L   26194.89405197 -.00000156  00000+0 -46827-3 0  9998
2 47268  87.8974 345.3519 0001946  97.4237 262.7113 13.12440479268052
ONEWEB-0123             
1 47269U 20100M   26194.96605692 -.00000029  00000+0 -11565-3 0  9999
2 47269  87.8960 345.3415 0001859  92.5460 267.5881 13.12441521268201
ONEWEB-0124             
1 47270U 20100N   26194.95589678  .00000285  00000+0  75768-3 0  9992
2 47270  87.8958 345.3467 0001735  95.3196 264.8130 13.12441885268083
ONEWEB-0125             
1 47271U 20100P   26194.93387044  .00000227  00000+0  59517-3 0  9994
2 47271  87.8970 345.3374 0001610  88.7417 271.3896 13.12443802268149
ONEWEB-0126             
1 47272U 20100Q   26194.95435250  .00000355  00000+0  95024-3 0  9995
2 47272  87.8963 345.3474 0001970  95.2443 264.8910 13.12441496268213
ONEWEB-0127             
1 47273U 20100R   26194.92031419 -.00000240  00000+0 -70195-3 0  9999
2 47273  87.8961 345.3516 0002002  97.0358 263.0998 13.12443917268230
ONEWEB-0128             
1 47274U 20100S   26194.94234531  .00000365  00000+0  97985-3 0  9994
2 47274  87.8958 345.3609 0001732 104.9808 255.1512 13.12443272268257
ONEWEB-0129             
1 47275U 20100T   26194.92200955 -.00000212  00000+0 -62578-3 0  9999
2 47275  87.8968 345.3414 0002967  94.7914 265.3554 13.12443681268183
ONEWEB-0130             
1 47276U 20100U   26194.94912500  .00000405  00000+0  10908-2 0  9999
2 47276  87.8967 345.3319 0001933  98.5092 261.6256 13.12442895268159
ONEWEB-0131             
1 47277U 20100V   26194.86950067  .00000358  00000+0  96109-3 0  9996
2 47277  87.8957 345.3628 0001787 102.9044 257.2284 13.12443429268185
